     3.02           N: GNSS NAV DATA    C: BEIDOU           RINEX VERSION / TYPE
Spider v7.5.1.8670  SMO                 20210611 000827 UTC PGM / RUN BY / DATE
BDSA   7.4506D-09  5.9605D-08 -4.1723D-07  6.5565D-07       IONOSPHERIC CORR
BDSB   1.2698D+05  8.1920D+04 -6.5536D+04  6.5536D+04       IONOSPHERIC CORR
BDUT -1.8626451492D-09 0.000000000D+00 431585  805          TIME SYSTEM CORR
     4     4   573     6                                    LEAP SECONDS
                                                            END OF HEADER
C13 2021 06 10 12 00 00 2.945059677586D-04 1.423217099727D-11 0.000000000000D+00
     1.000000000000D+00-6.856875000000D+02 4.175173817789D-10-1.615653696084D+00
    -2.275127917528D-05 3.716507810168D-03 1.691235229373D-05 6.493480957031D+03
     3.888000000000D+05-4.237517714500D-08 2.829772547134D+00-1.229345798492D-07
     1.005161326284D+00-2.534843750000D+02-2.590784396569D+00-1.542564298518D-09
    -2.703683943395D-10                    8.050000000000D+02                   
     2.000000000000D+00 0.000000000000D+00-9.199999873033D-09 2.399999976532D-09
     3.888000000000D+05 0.000000000000D+00                                      
C30 2021 06 10 12 00 00 4.701388534158D-04 1.308286812218D-12 0.000000000000D+00
     1.000000000000D+00-6.985937500000D+01 3.940521242640D-09 2.155408907741D+00
    -3.645196557045D-06 5.045871948823D-04-2.491287887096D-07 5.282615413666D+03
     3.888000000000D+05-4.563480615616D-08 1.895158283029D+00-2.980232238770D-08
     9.650511100695D-01 3.686406250000D+02 5.614883138649D-01-7.137797464196D-09
    -2.971552448550D-10                    8.050000000000D+02                   
     2.000000000000D+00 0.000000000000D+00-9.799999922677D-09-9.799999922677D-09
     3.888000000000D+05 1.000000000000D+00                                      
C02 2021 06 10 12 00 00 6.050242809579D-04-3.230660183817D-11 0.000000000000D+00
     1.000000000000D+00-3.154687500000D+01 1.943295302453D-09 2.495833049099D+00
    -1.110136508942D-06 7.710220525041D-04 2.284627407789D-05 6.493485605240D+03
     3.888000000000D+05 2.291053533554D-07 2.195633326655D-02 6.472691893578D-08
     5.348650276182D-02-6.959218750000D+02 2.165674301919D+00-7.293161075062D-10
    -8.153910879827D-10                    8.050000000000D+02                   
     2.000000000000D+00 0.000000000000D+00 1.400000004814D-09-1.420000028673D-08
     3.888004000000D+05 0.000000000000D+00                                      
C05 2021 06 10 12 00 00-9.636604227126D-05 1.771205404566D-11 0.000000000000D+00
     1.000000000000D+00 1.828125000000D+02-2.478674765438D-10 1.691950934788D+00
     5.849637091160D-06 7.955689216033D-04 2.429261803627D-05 6.493446563721D+03
     3.888000000000D+05 1.718290150166D-07 1.698580840024D-01-1.946464180946D-07
     6.126113261778D-02-7.431406250000D+02 2.381286604454D+00 1.363985369096D-09
    -8.464638434624D-10                    8.050000000000D+02                   
     2.000000000000D+00 0.000000000000D+00 0.000000000000D+00-9.499999897855D-09
     3.888004000000D+05 0.000000000000D+00                                      
C03 2021 06 10 12 00 00-2.053037751466D-04 4.485478655170D-11 0.000000000000D+00
     1.000000000000D+00 2.084843750000D+02-7.653890299331D-10 1.842662452299D+00
     6.775371730328D-06 9.259617654607D-04 2.220645546913D-05 6.493395769119D+03
     3.888000000000D+05 6.519258022308D-09 1.901354905578D-01 1.038424670696D-07
     5.893878381406D-02-6.737812500000D+02 3.116500779247D+00 1.983654129845D-09
    -6.493127702178D-10                    8.050000000000D+02                   
     2.000000000000D+00 0.000000000000D+00 2.299999968258D-09-8.099999782019D-09
     3.888004000000D+05 0.000000000000D+00                                      
C01 2021 06 10 12 00 00-3.835823154077D-04 3.657163460957D-11 0.000000000000D+00
     1.000000000000D+00 6.892187500000D+01 4.257320329604D-10 5.749412163580D-01
     2.237036824226D-06 5.715489387512D-04 2.196710556746D-05 6.493433662415D+03
     3.888000000000D+05 5.401670932770D-08 1.374826448297D-01-8.847564458847D-09
     8.760430369946D-02-6.665468750000D+02-1.252567503927D+00 6.728851920101D-10
    -6.664563345637D-10                    8.050000000000D+02                   
     2.000000000000D+00 0.000000000000D+00-5.199999986161D-09-1.009999994750D-08
     3.888004000000D+05 0.000000000000D+00                                      
C04 2021 06 10 12 00 00-9.457534179091D-05 6.392930629318D-11 0.000000000000D+00
     1.000000000000D+00 1.145468750000D+02-3.503717316278D-10 1.155535664584D+00
     3.767199814320D-06 3.625688841566D-04 2.090400084853D-05 6.493448169708D+03
     3.888000000000D+05 6.007030606270D-08 1.839798765289D-01 6.239861249924D-08
     7.541577204390D-02-6.335000000000D+02-1.611402324483D+00 1.400415450270D-09
    -6.753852477281D-10                    8.050000000000D+02                   
     2.000000000000D+00 0.000000000000D+00 5.700000027531D-09-8.499999815115D-09
     3.888004000000D+05 0.000000000000D+00                                      
C07 2021 06 10 12 00 00 8.870707824826D-05-4.033662293068D-11 0.000000000000D+00
     2.000000000000D+00 7.855625000000D+02 1.150762263258D-09 8.468493407771D-01
     2.605514600873D-05 8.475082460791D-03 5.006324499846D-06 6.493802474976D+03
     3.888000000000D+05 9.685754776001D-08 6.880874465184D-01 1.080334186554D-07
     8.883954403446D-01 5.010937500000D+01-2.540742398793D+00-2.059728609893D-09
     1.892935946879D-10                    8.050000000000D+02                   
     2.000000000000D+00 0.000000000000D+00 1.490000034465D-08 7.000000024071D-10
     3.903300000000D+05 1.000000000000D+00                                      
C23 2021 06 10 13 00 00-9.313203627244D-04-1.173017238898D-11 0.000000000000D+00
     1.000000000000D+00 4.512500000000D+01 3.884447430380D-09 2.486080363820D+00
     2.212356775999D-06 2.497393870726D-04 1.126388087869D-05 5.282625293732D+03
     3.924000000000D+05 2.328306436539D-09-1.706272526814D-01 2.328306436539D-08
     9.499085635274D-01 1.329062500000D+02-1.898937711406D+00-6.586702738787D-09
    -3.543004778450D-10                    8.050000000000D+02                   
     2.000000000000D+00 0.000000000000D+00 2.500000029215D-08 2.500000029215D-08
     3.924000000000D+05 1.000000000000D+00                                      
C08 2021 06 10 13 00 00-8.934991201386D-04-2.400746268449D-12 0.000000000000D+00
     1.000000000000D+00-6.774687500000D+02 2.821546052356D-10-8.793938464664D-01
    -2.293940633535D-05 5.150161683559D-03 1.656357198954D-05 6.493817070007D+03
     3.924000000000D+05 1.257285475731D-08 2.851762512887D+00-7.078051567078D-08
     1.043855294432D+00-2.377031250000D+02-2.730073751079D+00-1.523634884926D-09
    -2.957266098669D-10                    8.050000000000D+02                   
     2.000000000000D+00 0.000000000000D+00 1.130000004679D-08-9.999999717181D-10
     3.924000000000D+05 0.000000000000D+00                                      
C09 2021 06 10 13 00 00 4.587022121996D-04-2.805045085097D-11 0.000000000000D+00
     1.000000000000D+00-7.698437500000D+01 1.800432136712D-09 2.462366192578D+00
    -2.182554453611D-06 8.288356591947D-03 2.317596226931D-06 6.493499567032D+03
     3.924000000000D+05-1.345761120319D-07-1.265473280910D+00 5.122274160385D-08
     9.495241832650D-01 1.665468750000D+02-2.333713526707D+00-2.085801087404D-09
    -4.335894976393D-10                    8.050000000000D+02                   
     2.000000000000D+00 0.000000000000D+00 7.100000143367D-09 3.400000059273D-09
     3.924000000000D+05 0.000000000000D+00                                      
C06 2021 06 10 13 00 00 4.866395611316D-04 4.506794937242D-11 0.000000000000D+00
     1.000000000000D+00-6.253125000000D+01 1.876149680058D-09 2.751663485852D+00
    -1.921318471432D-06 1.130173518322D-02 1.832377165556D-06 6.493578901291D+03
     3.924000000000D+05-1.206062734127D-07-1.308137501932D+00-1.159496605396D-07
     9.444972222376D-01 1.863593750000D+02-2.176190773801D+00-2.158661249752D-09
    -3.435857431899D-10                    8.050000000000D+02                   
     2.000000000000D+00 0.000000000000D+00 8.499999815115D-09-1.800000037910D-09
     3.924000000000D+05 0.000000000000D+00                                      
C20 2021 06 10 13 00 00-8.818790083751D-04 1.392752579932D-11 0.000000000000D+00
     1.000000000000D+00 1.515625000000D+01 3.597649955722D-09 1.758558736013D+00
     8.461065590382D-07 9.103304473683D-04 8.289702236652D-06 5.282621862411D+03
     3.924000000000D+05-7.497146725655D-08-2.276384922695D+00 5.867332220078D-08
     9.660691313542D-01 1.958593750000D+02-6.860416594517D-01-6.496342130902D-09
     6.371693728191D-10                    8.050000000000D+02                   
     2.000000000000D+00 0.000000000000D+00 2.300000012667D-08 2.300000012667D-08
     3.924000000000D+05 1.000000000000D+00                                      
C07 2021 06 10 13 00 00 8.856400381774D-05-4.029487854496D-11 3.659182332139D-19
     3.000000000000D+00 7.601093750000D+02 1.045400654931D-09 1.108832238971D+00
     2.521183341742D-05 8.476463845000D-03 6.340909749269D-06 6.493813047409D+03
     3.924000000000D+05-3.050081431866D-07 6.880777049469D-01 3.557652235031D-07
     8.883960971948D-01 1.040625000000D+01-2.540252270035D+00-1.980082542374D-09
     3.685867722147D-10                    8.050000000000D+02                   
     2.000000000000D+00 0.000000000000D+00 1.490000034465D-08 7.000000024071D-10
     3.924000000000D+05 2.000000000000D+00                                      
